BEIDOU-2 G8             
1 44231U 19027A   24020.63865424 -.00000246  00000+0  00000+0 0  9990
2 44231   1.5822  72.6631 0004263 182.7727 238.4321  1.00267305 17272
YAMAL 601               
1 44307U 19031A   24020.25585112  .00000124  00000+0  00000+0 0  9994
2 44307   0.0139 123.1162 0002727 174.7329 322.3650  1.00272801 17101
AT&T T-16               
1 44333U 19034A   24020.14000668 -.00000110  00000+0  00000+0 0  9998
2 44333   0.0018 126.2553 0000514  45.6762 256.6062  1.00269359 16810
EUTELSAT 7C             
1 44334U 19034B   24020.30466069  .00000052  00000+0  00000+0 0  9992
2 44334   0.0705 197.3680 0003393  86.3881 312.0528  1.00270975 17299
BEIDOU-3 IGSO-2         
1 44337U 19035A   24019.30049104 -.00000094  00000+0  00000+0 0  9998
2 44337  55.1687 166.5840 0031529 200.9223 337.5273  1.00287457 16846
COSMOS 2539             
1 44457U 19048A   24019.53215150  .00000085  00000+0  00000+0 0  9995
2 44457   0.0321 113.2924 0000313 268.3408 300.3443  1.00270387 16396
INTELSAT 39 (IS-39)     
1 44476U 19049B   24020.40170128  .00000038  00000+0  00000+0 0  9998
2 44476   0.0272  58.6339 0001182  99.8514 167.3423  1.00270342 16327
AMOS-17                 
1 44479U 19050A   24020.24949845  .00000113  00000+0  00000+0 0  9999
2 44479   0.0188  79.1948 0002016 240.0315 266.6981  1.00269995 16375
MEV-1                   
1 44625U 19067B   24020.45548135 -.00000198  00000+0  00000+0 0  9994
2 44625   0.0575 258.1231 0000873  38.7677 318.8918  1.00270036 14178
BEIDOU-3 IGSO-3         
1 44709U 19073A   24020.14947021 -.00000201  00000+0  00000+0 0  9992
2 44709  56.3021 290.3028 0034741 182.2495 177.7816  1.00295049 15640
JCSAT-18 (KACIFIC 1)    
1 44868U 19091A   24019.77467388 -.00000196  00000+0  00000+0 0  9991
2 44868   0.0343 206.0738 0000640 100.1536 241.2809  1.00270954 15206
ELEKTRO-L 3             
1 44903U 19095A   24020.47610575 -.00000093  00000+0  00000+0 0  9998
2 44903   0.0806 277.9931 0001333  20.6243  68.1258  1.00274082 14897
TJS-5                   
1 44978U 20002A   24020.51368890 -.00000338  00000+0  00000+0 0  9997
2 44978   0.2072  79.0838 0004933 154.7194 177.9524  1.00267229 14885
GSAT-30                 
1 45026U 20005A   24020.54204378 -.00000161  00000+0  00000+0 0  9992
2 45026   0.0375  99.2678 0001356 158.1177 140.1438  1.00272312 14699
EUTELSAT KONNECT        
1 45027U 20005B   24020.39064941  .00000053  00000+0  00000+0 0  9995
2 45027   0.0616  89.3120 0000521 209.5210 328.2383  1.00270017 15512
JCSAT-17                
1 45245U 20013A   24020.34478840 -.00000308  00000+0  00000+0 0  9992
2 45245   5.6790 348.7490 0004494 313.1599  77.4173  1.00271407 14428
GEO-KOMPSAT-2B          
1 45246U 20013B   24020.55808118 -.00000340  00000+0  00000+0 0  9997
2 45246   0.0491 242.3205 0002612  48.0282 158.2160  1.00272757 14469
BEIDOU-3 G2             
1 45344U 20017A   24020.47688896 -.00000138  00000+0  00000+0 0  9995
2 45344   2.1528  23.2512 0003251 256.9506  90.8432  1.00271214 14446
AEHF-6 (USA 298)        
1 45465U 20022B   24020.52966098 -.00000287  00000+0  00000+0 0  9999
2 45465   4.5741 299.0747 0048866   2.1145 146.5578  1.00276085 14202
BEIDOU-3 G3             
1 45807U 20040A   24019.98158935 -.00000349  00000+0  00000+0 0  9999
2 45807   0.5935  16.0172 0009393 298.5201 268.2426  1.00269136 13255
APSTAR 6D               
1 45863U 20045A   24019.91466748 -.00000314  00000+0  00000+0 0  9995
2 45863   0.0150  74.8324 0000878 255.7093 251.5360  1.00268361 13043
KOREASAT 116            
1 45920U 20048A   24020.54841043 -.00000358  00000+0  00000+0 0  9996
2 45920   0.0145  51.1233 0001161 243.9530 137.9567  1.00270510 12829
EXPRESS 103             
1 45985U 20053A   24020.54899116 -.00000276  00000+0  00000+0 0  9996
2 45985   0.0273  58.7290 0000174 144.5361 210.2964  1.00269752 12832
EXPRESS 80              
1 45986U 20053B   24019.44916007 -.00000131  00000+0  00000+0 0  9993
2 45986   0.0171  47.4848 0002274 347.3762 325.1540  1.00271339 12813
