OBJECT_NAME,OBJECT_ID,EPOCH,MEAN_MOTION,ECCENTRICITY,INCLINATION,RA_OF_ASC_NODE,ARG_OF_PERICENTER,MEAN_ANOMALY,EPHEMERIS_TYPE,CLASSIFICATION_TYPE,NORAD_CAT_ID,ELEMENT_SET_NO,REV_AT_EPOCH,BSTAR,MEAN_MOTION_DOT,MEAN_MOTION_DDOT
BEIDOU-2 G8,2019-027A,2024-01-20T15:19:39.726336,1.00267305,.0004263,1.5822,72.6631,182.7727,238.4321,0,U,44231,999,1727,0,-.246E-5,0
YAMAL 601,2019-031A,2024-01-20T06:08:25.536768,1.00272801,.0002727,0.0139,123.1162,174.7329,322.3650,0,U,44307,999,1710,0,.124E-5,0
AT&T T-16,2019-034A,2024-01-20T03:21:36.577152,1.00269359,.0000514,0.0018,126.2553,45.6762,256.6062,0,U,44333,999,1681,0,-.11E-5,0
EUTELSAT 7C,2019-034B,2024-01-20T07:18:42.683616,1.00270975,.0003393,0.0705,197.3680,86.3881,312.0528,0,U,44334,999,1729,0,.52E-6,0
BEIDOU-3 IGSO-2,2019-035A,2024-01-19T07:12:42.425856,1.00287457,.0031529,55.1687,166.5840,200.9223,337.5273,0,U,44337,999,1684,0,-.94E-6,0
COSMOS 2539,2019-048A,2024-01-19T12:46:17.889600,1.00270387,.0000313,0.0321,113.2924,268.3408,300.3443,0,U,44457,999,1639,0,.85E-6,0
INTELSAT 39 (IS-39),2019-049B,2024-01-20T09:38:26.990592,1.00270342,.0001182,0.0272,58.6339,99.8514,167.3423,0,U,44476,999,1632,0,.38E-6,0
AMOS-17,2019-050A,2024-01-20T05:59:16.666080,1.00269995,.0002016,0.0188,79.1948,240.0315,266.6981,0,U,44479,999,1637,0,.113E-5,0
MEV-1,2019-067B,2024-01-20T10:55:53.588640,1.00270036,.0000873,0.0575,258.1231,38.7677,318.8918,0,U,44625,999,1417,0,-.198E-5,0
BEIDOU-3 IGSO-3,2019-073A,2024-01-20T03:35:14.226144,1.00295049,.0034741,56.3021,290.3028,182.2495,177.7816,0,U,44709,999,1562,0,-.201E-5,0
JCSAT-18 (KACIFIC 1),2019-091A,2024-01-19T18:35:31.823232,1.00270954,.000064,0.0343,206.0738,100.1536,241.2809,0,U,44868,999,1520,0,-.196E-5,0
ELEKTRO-L 3,2019-095A,2024-01-20T11:25:35.536800,1.00274082,.0001333,0.0806,277.9931,20.6243,68.1258,0,U,44903,999,1489,0,-.93E-6,0
TJS-5,2020-002A,2024-01-20T12:19:42.720960,1.00267229,.0004933,0.2072,79.0838,154.7194,177.9524,0,U,44978,999,1488,0,-.338E-5,0
GSAT-30,2020-005A,2024-01-20T13:00:32.582592,1.00272312,.0001356,0.0375,99.2678,158.1177,140.1438,0,U,45026,999,1469,0,-.161E-5,0
EUTELSAT KONNECT,2020-005B,2024-01-20T09:22:32.109024,1.00270017,.0000521,0.0616,89.3120,209.5210,328.2383,0,U,45027,999,1551,0,.53E-6,0
JCSAT-17,2020-013A,2024-01-20T08:16:29.717760,1.00271407,.0004494,5.6790,348.7490,313.1599,77.4173,0,U,45245,999,1442,0,-.308E-5,0
GEO-KOMPSAT-2B,2020-013B,2024-01-20T13:23:38.213952,1.00272757,.0002612,0.0491,242.3205,48.0282,158.2160,0,U,45246,999,1446,0,-.34E-5,0
BEIDOU-3 G2,2020-017A,2024-01-20T11:26:43.206144,1.00271214,.0003251,2.1528,23.2512,256.9506,90.8432,0,U,45344,999,1444,0,-.138E-5,0
AEHF-6 (USA 298),2020-022B,2024-01-20T12:42:42.708672,1.00276085,.0048866,4.5741,299.0747,2.1145,146.5578,0,U,45465,999,1420,0,-.287E-5,0
BEIDOU-3 G3,2020-040A,2024-01-19T23:33:29.319840,1.00269136,.0009393,0.5935,16.0172,298.5201,268.2426,0,U,45807,999,1325,0,-.349E-5,0
APSTAR 6D,2020-045A,2024-01-19T21:57:07.270272,1.00268361,.0000878,0.0150,74.8324,255.7093,251.5360,0,U,45863,999,1304,0,-.314E-5,0
KOREASAT 116,2020-048A,2024-01-20T13:09:42.661152,1.00270510,.0001161,0.0145,51.1233,243.9530,137.9567,0,U,45920,999,1282,0,-.358E-5,0
EXPRESS 103,2020-053A,2024-01-20T13:10:32.836224,1.00269752,.0000174,0.0273,58.7290,144.5361,210.2964,0,U,45985,999,1283,0,-.276E-5,0
EXPRESS 80,2020-053B,2024-01-19T10:46:47.430048,1.00271339,.0002274,0.0171,47.4848,347.3762,325.1540,0,U,45986,999,1282,0,-.131E-5,0
